OBJECT_NAME,OBJECT_ID,EPOCH,MEAN_MOTION,ECCENTRICITY,INCLINATION,RA_OF_ASC_NODE,ARG_OF_PERICENTER,MEAN_ANOMALY,EPHEMERIS_TYPE,CLASSIFICATION_TYPE,NORAD_CAT_ID,ELEMENT_SET_NO,REV_AT_EPOCH,BSTAR,MEAN_MOTION_DOT,MEAN_MOTION_DDOT
STARLINK-36948,2026-053C,2026-06-14T09:16:11.703648,15.33427059,.000248,97.2864,40.4989,94.1766,265.9760,0,U,68209,999,1501,.38628E-3,.1241E-3,0
STARLINK-37119,2026-053D,2026-06-14T09:12:16.324992,15.33439544,.0002035,97.2861,40.5015,98.4049,261.7425,0,U,68210,999,1503,.55575E-3,.17907E-3,0
STARLINK-37120,2026-053E,2026-06-14T09:08:21.432768,15.33440703,.0001929,97.2860,40.5053,95.8100,264.3363,0,U,68211,999,1501,.55348E-3,.17834E-3,0
STARLINK-37117,2026-053F,2026-06-14T09:04:27.459840,15.33411754,.00028,97.2876,40.5066,87.3253,272.8310,0,U,68212,999,1503,.25966E-3,.8309E-4,0
STARLINK-37116,2026-053G,2026-06-14T09:00:31.483296,15.33439427,.0001331,97.2855,40.5114,93.8486,266.2909,0,U,68213,999,1503,.23787E-3,.7611E-4,0
STARLINK-35854,2026-053H,2026-06-14T09:51:24.970752,15.33475595,.0001301,97.2836,40.6084,101.3651,258.7738,0,U,68214,999,1502,.87725E-3,.2838E-3,0
STARLINK-36272,2026-053J,2026-06-14T08:52:41.906208,15.33440102,.0001894,97.2853,40.5151,92.8701,267.2759,0,U,68215,999,1501,.49134E-3,.15818E-3,0
STARLINK-37014,2026-053K,2026-06-14T08:48:47.015712,15.33443152,.0001954,97.2853,40.5228,92.2205,267.9262,0,U,68216,999,1503,.59892E-3,.19309E-3,0
STARLINK-37011,2026-053L,2026-06-14T05:36:55.793376,15.33444467,.0001513,97.2854,40.3964,94.1795,265.9621,0,U,68217,999,1501,.37859E-3,.12167E-3,0
STARLINK-37108,2026-053M,2026-06-14T05:33:00.768960,15.33446097,.0001138,97.2863,40.3994,97.8004,262.3368,0,U,68218,999,1501,.4714E-3,.15175E-3,0
STARLINK-37106,2026-053N,2026-06-14T05:29:06.044352,15.33436485,.0001567,97.2862,40.4053,89.6974,270.4448,0,U,68219,999,1501,.29273E-3,.9385E-4,0
STARLINK-37030,2026-053P,2026-06-14T05:21:16.101792,15.33440174,.000146,97.2862,40.4092,103.8156,256.3249,0,U,68220,999,1501,.33181E-3,.1065E-3,0
STARLINK-37012,2026-053Q,2026-06-14T05:25:11.044128,15.33441843,.0001391,97.2866,40.4086,93.2516,266.8886,0,U,68221,999,1501,.32652E-3,.1048E-3,0
STARLINK-37110,2026-053R,2026-06-14T05:17:21.278688,15.33441982,.0001692,97.2860,40.4160,97.2123,262.9312,0,U,68222,999,1501,.18868E-3,.6021E-4,0
STARLINK-37025,2026-053S,2026-06-14T05:13:26.276736,15.33450345,.0001281,97.2843,40.4199,82.9463,277.1926,0,U,68223,999,1501,.53351E-3,.17191E-3,0
STARLINK-36960,2026-053U,2026-06-14T09:47:30.901056,15.33453770,.000227,97.2859,40.6226,81.8316,278.3184,0,U,68225,999,1502,.6187E-3,.19958E-3,0
STARLINK-37038,2026-053V,2026-06-14T12:47:36.974112,15.33453885,.0002064,97.2857,40.7581,82.0875,278.0602,0,U,68226,999,1504,.82009E-3,.26502E-3,0
STARLINK-37083,2026-053W,2026-06-14T09:43:36.045120,15.33448315,.0002348,97.2854,40.6270,83.6495,276.5015,0,U,68227,999,1501,.84194E-3,.27208E-3,0
STARLINK-37050,2026-053X,2026-06-14T09:35:45.083040,15.33469750,.0001719,97.2862,40.6319,89.5004,270.6436,0,U,68228,999,1502,.62337E-3,.20119E-3,0
STARLINK-37081,2026-053Y,2026-06-14T12:00:02.998944,15.33404633,.0002135,97.2845,43.6970,93.4719,266.7809,0,U,68229,999,593,.17634E-2,.57215E-3,0
STARLINK-37100,2026-053Z,2026-06-14T09:31:51.396096,15.33443645,.0002539,97.2864,40.6373,89.8649,270.2884,0,U,68230,999,1504,.77891E-3,.25156E-3,0
STARLINK-37104,2026-053AA,2026-06-14T09:27:56.011392,15.33446687,.0001634,97.2856,40.6397,96.7621,263.3808,0,U,68231,999,1504,.63077E-3,.20345E-3,0
STARLINK-37027,2026-054A,2026-06-14T09:57:53.337888,15.34399817,.0001209,53.1584,200.2368,82.8745,277.2395,0,U,68232,999,1390,.41476E-3,.13662E-3,0
STARLINK-37132,2026-054B,2026-06-14T09:10:21.105408,15.49315490,.0000926,53.1553,200.7918,82.9625,277.1489,0,U,68233,999,1389,.65529E-3,.36173E-3,0
STARLINK-37101,2026-054C,2026-06-14T08:51:53.932608,15.49362552,.0001343,53.1579,203.5999,57.5255,302.5883,0,U,68234,999,1385,.85143E-3,.47281E-3,0
STARLINK-36963,2026-054D,2026-06-14T09:09:33.162048,15.34385948,.0001068,53.1572,200.7423,82.6529,277.4595,0,U,68235,999,1389,.52114E-3,.17264E-3,0
STARLINK-37127,2026-054E,2026-06-14T08:19:58.852416,15.49319705,.0001088,53.1577,203.4585,82.0201,278.0932,0,U,68236,999,1385,.11754E-2,.65497E-3,0
STARLINK-37095,2026-054F,2026-06-14T09:06:30.922848,15.34410055,.000095,53.1571,200.7293,86.1443,273.9668,0,U,68237,999,1389,.3811E-3,.12526E-3,0
STARLINK-37097,2026-054G,2026-06-14T12:00:02.998944,15.34363016,.0001747,53.1581,199.7765,67.7072,76.1484,0,U,68238,999,586,.14733E-2,.49673E-3,0
STARLINK-37096,2026-054H,2026-06-14T12:00:02.998944,15.34356892,.0001554,53.1584,199.8210,101.3001,19.1913,0,U,68239,999,591,.14612E-2,.49249E-3,0
STARLINK-37092,2026-054J,2026-06-14T06:20:28.921632,15.49359866,.0001098,53.1585,203.6424,100.5993,259.5140,0,U,68240,999,1384,.10474E-2,.58342E-3,0
STARLINK-37094,2026-054K,2026-06-14T09:10:58.908864,15.30185763,.0001273,53.1588,207.9451,76.0131,284.1011,0,U,68241,999,1379,.31193E-3,.8886E-4,0
STARLINK-36356,2026-054L,2026-06-14T10:16:09.785856,15.30203988,.0001322,53.1575,207.5295,101.1046,259.0103,0,U,68242,999,1380,.57175E-3,.16615E-3,0
STARLINK-36345,2026-054M,2026-06-14T08:05:54.943872,15.34400211,.0001096,53.1579,200.4586,95.9008,264.2119,0,U,68243,999,1389,.56404E-3,.18728E-3,0
STARLINK-36310,2026-054N,2026-06-14T08:59:24.163872,15.49330845,.0001239,53.1587,202.8988,61.3546,298.7588,0,U,68244,999,1386,.82725E-3,.45866E-3,0
STARLINK-36247,2026-054P,2026-06-14T08:35:39.870240,15.49357700,.0001375,53.1559,201.3604,82.3544,277.7621,0,U,68245,999,1388,.78791E-3,.43693E-3,0
STARLINK-37043,2026-054Q,2026-06-14T09:20:43.078272,15.49321699,.0001062,53.1577,202.9961,87.2135,272.8996,0,U,68246,999,1386,.12592E-2,.70249E-3,0
STARLINK-37044,2026-054R,2026-06-14T09:50:16.414944,15.49311315,.0001487,53.1554,200.9746,62.4080,297.7080,0,U,68247,999,1389,.13363E-2,.74591E-3,0
STARLINK-36997,2026-054S,2026-06-14T10:34:23.845728,15.30205551,.0001079,53.1586,207.6004,70.7064,289.4053,0,U,68248,999,1380,.3829E-3,.11E-3,0
STARLINK-37141,2026-054T,2026-06-14T09:59:45.934368,15.49311717,.000189,53.1562,201.0182,63.5272,296.5931,0,U,68249,999,1389,.13008E-2,.72582E-3,0
STARLINK-37087,2026-054U,2026-06-14T09:06:50.080320,15.49317703,.0001495,53.1586,203.6541,82.9165,277.2014,0,U,68250,999,1385,.10089E-2,.56084E-3,0
STARLINK-36274,2026-054V,2026-06-14T10:20:44.167200,15.30216940,.0001016,53.1570,207.5306,104.4663,255.6451,0,U,68251,999,1380,.51888E-3,.15048E-3,0
STARLINK-37085,2026-054W,2026-06-14T07:41:54.152160,15.49208115,.0002709,53.1559,201.1171,8.5026,351.6028,0,U,68252,999,1388,.97392E-3,.53903E-3,0
STARLINK-37086,2026-054X,2026-06-14T08:58:06.072096,15.49316798,.0001175,53.1555,201.4620,79.2897,280.8244,0,U,68253,999,1388,.12231E-2,.6819E-3,0
STARLINK-37084,2026-054Y,2026-06-14T09:28:39.135360,15.49361779,.0000653,53.1558,200.8736,113.5792,246.5285,0,U,68254,999,1389,.79837E-3,.44288E-3,0
STARLINK-37075,2026-054Z,2026-06-14T08:56:11.357088,15.49332177,.000121,53.1579,202.8829,66.2461,293.8675,0,U,68255,999,1386,.8011E-3,.44396E-3,0
STARLINK-36333,2026-054AA,2026-06-14T10:31:21.534816,15.30192044,.0001748,53.1575,207.5716,58.5179,301.5993,0,U,68256,999,1380,.43331E-3,.12493E-3,0
STARLINK-36745,2026-054AB,2026-06-14T08:54:23.707872,15.34405781,.0001231,53.1578,200.6674,88.8970,271.2173,0,U,68257,999,1389,.61277E-3,.20387E-3,0
STARLINK-36890,2026-054AC,2026-06-14T10:11:35.814048,15.30202316,.0001526,53.1567,207.4789,82.3099,277.8074,0,U,68258,999,1380,.43274E-3,.1248E-3,0
STARLINK-36323,2026-054AD,2026-06-14T09:08:30.777792,15.49321757,.0001066,53.1582,202.9404,92.5246,267.5885,0,U,68259,999,1385,.10065E-2,.55954E-3,0
STARLINK-37056,2026-054AE,2026-06-14T09:45:20.376576,15.49316991,.0001444,53.1555,200.9461,56.8934,303.2213,0,U,68260,999,1389,.1104E-2,.61453E-3,0
TEN-KOH 2,2025-241B,2026-06-13T17:40:59.828448,15.23867079,.00061529,51.6690,336.0488,131.9558,228.1945,0,U,68261,999,1438,.27529379E-3,.6404E-4,0
STARLINK-37162,2026-055A,2026-06-14T11:54:41.032800,15.34390794,.0001173,53.1590,228.1088,89.2170,270.8967,0,U,68262,999,1477,.54797E-3,.18177E-3,0
STARLINK-37156,2026-055B,2026-06-14T12:04:28.668576,15.34399877,.0001117,53.1593,229.5794,74.2626,285.8500,0,U,68263,999,1475,.70538E-3,.23531E-3,0
STARLINK-37163,2026-055C,2026-06-14T09:56:39.098688,15.34406090,.0000699,53.1575,228.3116,96.0282,264.0800,0,U,68264,999,1476,.81262E-3,.27184E-3,0
STARLINK-37133,2026-055D,2026-06-14T10:39:47.420640,15.34380742,.000142,53.1597,229.9179,116.3193,243.7956,0,U,68265,999,1474,.54554E-3,.18089E-3,0
STARLINK-37042,2026-055E,2026-06-14T10:33:00.639072,15.34389430,.0001485,53.1599,228.4663,85.7556,274.3616,0,U,68266,999,1476,.50845E-3,.16836E-3,0
STARLINK-37103,2026-055F,2026-06-14T10:41:58.128288,15.34400903,.0001264,53.1589,227.7977,56.8865,303.2258,0,U,68267,999,1477,.50377E-3,.16683E-3,0
STARLINK-36999,2026-055G,2026-06-14T10:48:01.567296,15.34390629,.0001259,53.1580,227.7923,77.3344,282.7800,0,U,68268,999,1477,.75215E-3,.25114E-3,0
STARLINK-36962,2026-055H,2026-06-14T11:00:08.732160,15.34400253,.0001162,53.1575,227.8524,87.8793,272.2342,0,U,68269,999,1477,.81251E-3,.27176E-3,0
STARLINK-37028,2026-055J,2026-06-14T11:55:23.329920,15.34393444,.0001267,53.1589,229.5395,72.4952,287.6189,0,U,68270,999,1475,.44386E-3,.14647E-3,0
STARLINK-37029,2026-055K,2026-06-14T11:18:19.205568,15.34381961,.0001143,53.1577,227.9500,83.7403,276.3730,0,U,68271,999,1477,.87458E-3,.29271E-3,0
STARLINK-36974,2026-055L,2026-06-14T11:46:25.860576,15.34390944,.0001168,53.1584,230.2368,92.5834,267.5302,0,U,68272,999,1474,.44374E-3,.14641E-3,0
STARLINK-37019,2026-055M,2026-06-14T11:33:30.100896,15.34420052,.0001391,53.1576,228.0187,79.2274,280.8885,0,U,68273,999,1477,.6363E-3,.21196E-3,0
STARLINK-37129,2026-055N,2026-06-14T10:26:56.761152,15.34403585,.0002191,53.1598,228.4339,103.0351,257.0896,0,U,68274,999,1476,.54406E-3,.18052E-3,0
